[{"OBJECT_NAME":"STARLINK-30249","OBJECT_ID":"2023-119S","EPOCH":"2026-03-09T22:00:01.999584","MEAN_MOTION":15.22731923,"ECCENTRICITY":0.0001613,"INCLINATION":43.0001,"RA_OF_ASC_NODE":79.6364,"ARG_OF_PERICENTER":251.0445,"MEAN_ANOMALY":294.4503,"EPHEMERIS_TYPE":0,"CLASSIFICATION_TYPE":"U","NORAD_CAT_ID":57618,"ELEMENT_SET_NO":999,"REV_AT_EPOCH":578,"BSTAR":0.044527608,"MEAN_MOTION_DOT":0.01150324,"MEAN_MOTION_DDOT":0},{"OBJECT_NAME":"TIANMU-1 15","OBJECT_ID":"2024-004A","EPOCH":"2026-03-09T23:35:22.816608","MEAN_MOTION":15.25840188,"ECCENTRICITY":0.00066612,"INCLINATION":97.4675,"RA_OF_ASC_NODE":255.2203,"ARG_OF_PERICENTER":349.0037,"MEAN_ANOMALY":11.1054,"EPHEMERIS_TYPE":0,"CLASSIFICATION_TYPE":"U","NORAD_CAT_ID":58700,"ELEMENT_SET_NO":999,"REV_AT_EPOCH":12064,"BSTAR":0.0003159702,"MEAN_MOTION_DOT":8.018e-5,"MEAN_MOTION_DDOT":0}]
